[{"OBJECT_NAME":"STARLINK-34461","OBJECT_ID":"2025-129G","EPOCH":"2026-02-20T04:54:02.515392","MEAN_MOTION":14.96213172,"ECCENTRICITY":0.00089703,"INCLINATION":70.0034,"RA_OF_ASC_NODE":118.7268,"ARG_OF_PERICENTER":27.1813,"MEAN_ANOMALY":332.9812,"EPHEMERIS_TYPE":0,"CLASSIFICATION_TYPE":"U","NORAD_CAT_ID":64418,"ELEMENT_SET_NO":999,"REV_AT_EPOCH":3866,"BSTAR":-0.091570956,"MEAN_MOTION_DOT":-0.00964725,"MEAN_MOTION_DDOT":0},{"OBJECT_NAME":"STARLINK-34512","OBJECT_ID":"2025-129H","EPOCH":"2026-02-20T04:35:10.690944","MEAN_MOTION":14.98334722,"ECCENTRICITY":0.00030941,"INCLINATION":70.0007,"RA_OF_ASC_NODE":118.6781,"ARG_OF_PERICENTER":269.563,"MEAN_ANOMALY":90.5174,"EPHEMERIS_TYPE":0,"CLASSIFICATION_TYPE":"U","NORAD_CAT_ID":64419,"ELEMENT_SET_NO":999,"REV_AT_EPOCH":3860,"BSTAR":0.00037072934,"MEAN_MOTION_DOT":4.334e-5,"MEAN_MOTION_DDOT":0},{"OBJECT_NAME":"STARLINK-34503","OBJECT_ID":"2025-129J","EPOCH":"2026-02-20T04:40:45.541056","MEAN_MOTION":15.00263744,"ECCENTRICITY":0.00113303,"INCLINATION":70.0048,"RA_OF_ASC_NODE":118.7002,"ARG_OF_PERICENTER":194.8738,"MEAN_ANOMALY":165.2091,"EPHEMERIS_TYPE":0,"CLASSIFICATION_TYPE":"U","NORAD_CAT_ID":64420,"ELEMENT_SET_NO":999,"REV_AT_EPOCH":3860,"BSTAR":0.073648753,"MEAN_MOTION_DOT":0.0099589,"MEAN_MOTION_DDOT":0},{"OBJECT_NAME":"STARLINK-34498","OBJECT_ID":"2025-129K","EPOCH":"2026-02-20T04:23:09.097152","MEAN_MOTION":14.98345745,"ECCENTRICITY":0.00027548,"INCLINATION":70.0018,"RA_OF_ASC_NODE":118.6583,"ARG_OF_PERICENTER":255.4027,"MEAN_ANOMALY":104.6826,"EPHEMERIS_TYPE":0,"CLASSIFICATION_TYPE":"U","NORAD_CAT_ID":64421,"ELEMENT_SET_NO":999,"REV_AT_EPOCH":3866,"BSTAR":0.00032651055,"MEAN_MOTION_DOT":3.807e-5,"MEAN_MOTION_DDOT":0},{"OBJECT_NAME":"STARLINK-34434","OBJECT_ID":"2025-129L","EPOCH":"2026-02-20T04:53:13.674336","MEAN_MOTION":14.98316955,"ECCENTRICITY":0.00029204,"INCLINATION":70.0025,"RA_OF_ASC_NODE":118.7303,"ARG_OF_PERICENTER":260.9223,"MEAN_ANOMALY":99.1606,"EPHEMERIS_TYPE":0,"CLASSIFICATION_TYPE":"U","NORAD_CAT_ID":64422,"ELEMENT_SET_NO":999,"REV_AT_EPOCH":3866,"BSTAR":-0.00016050258,"MEAN_MOTION_DOT":-2.007e-5,"MEAN_MOTION_DDOT":0},{"OBJECT_NAME":"STARLINK-34467","OBJECT_ID":"2025-129M","EPOCH":"2026-02-20T05:41:15.515232","MEAN_MOTION":14.98335222,"ECCENTRICITY":0.00035433,"INCLINATION":70.0021,"RA_OF_ASC_NODE":118.4439,"ARG_OF_PERICENTER":272.6306,"MEAN_ANOMALY":87.4447,"EPHEMERIS_TYPE":0,"CLASSIFICATION_TYPE":"U","NORAD_CAT_ID":64423,"ELEMENT_SET_NO":999,"REV_AT_EPOCH":3867,"BSTAR":0.00026002829,"MEAN_MOTION_DOT":3.011e-5,"MEAN_MOTION_DDOT":0},{"OBJECT_NAME":"STARLINK-34468","OBJECT_ID":"2025-129N","EPOCH":"2026-02-20T04:59:27.504672","MEAN_MOTION":14.98341777,"ECCENTRICITY":0.00028862,"INCLINATION":70.0023,"RA_OF_ASC_NODE":118.7425,"ARG_OF_PERICENTER":257.3883,"MEAN_ANOMALY":102.6953,"EPHEMERIS_TYPE":0,"CLASSIFICATION_TYPE":"U","NORAD_CAT_ID":64424,"ELEMENT_SET_NO":999,"REV_AT_EPOCH":3866,"BSTAR":0.0005128581,"MEAN_MOTION_DOT":6.033e-5,"MEAN_MOTION_DDOT":0},{"OBJECT_NAME":"STARLINK-34452","OBJECT_ID":"2025-129P","EPOCH":"2026-02-20T05:23:27.534336","MEAN_MOTION":14.98349516,"ECCENTRICITY":0.00033136,"INCLINATION":70.0006,"RA_OF_ASC_NODE":118.3959,"ARG_OF_PERICENTER":266.283,"MEAN_ANOMALY":93.795,"EPHEMERIS_TYPE":0,"CLASSIFICATION_TYPE":"U","NORAD_CAT_ID":64425,"ELEMENT_SET_NO":999,"REV_AT_EPOCH":3867,"BSTAR":0.00041124355,"MEAN_MOTION_DOT":4.82e-5,"MEAN_MOTION_DDOT":0},{"OBJECT_NAME":"STARLINK-34432","OBJECT_ID":"2025-129Q","EPOCH":"2026-02-20T05:47:15.916416","MEAN_MOTION":14.98337945,"ECCENTRICITY":0.00038642,"INCLINATION":70.0012,"RA_OF_ASC_NODE":118.4524,"ARG_OF_PERICENTER":268.3098,"MEAN_ANOMALY":91.7618,"EPHEMERIS_TYPE":0,"CLASSIFICATION_TYPE":"U","NORAD_CAT_ID":64426,"ELEMENT_SET_NO":999,"REV_AT_EPOCH":3861,"BSTAR":0.00040296918,"MEAN_MOTION_DOT":4.72e-5,"MEAN_MOTION_DDOT":0},{"OBJECT_NAME":"STARLINK-34480","OBJECT_ID":"2025-129R","EPOCH":"2026-02-20T05:23:13.258464","MEAN_MOTION":14.98345032,"ECCENTRICITY":0.00031404,"INCLINATION":70.0014,"RA_OF_ASC_NODE":118.3924,"ARG_OF_PERICENTER":262.9285,"MEAN_ANOMALY":97.1517,"EPHEMERIS_TYPE":0,"CLASSIFICATION_TYPE":"U","NORAD_CAT_ID":64427,"ELEMENT_SET_NO":999,"REV_AT_EPOCH":3867,"BSTAR":0.00056865793,"MEAN_MOTION_DOT":6.701e-5,"MEAN_MOTION_DDOT":0},{"OBJECT_NAME":"STARLINK-34495","OBJECT_ID":"2025-129S","EPOCH":"2026-02-20T05:35:14.739072","MEAN_MOTION":14.98340224,"ECCENTRICITY":0.00028811,"INCLINATION":70.0017,"RA_OF_ASC_NODE":118.4302,"ARG_OF_PERICENTER":260.3849,"MEAN_ANOMALY":99.6985,"EPHEMERIS_TYPE":0,"CLASSIFICATION_TYPE":"U","NORAD_CAT_ID":64428,"ELEMENT_SET_NO":999,"REV_AT_EPOCH":3867,"BSTAR":0.00037249225,"MEAN_MOTION_DOT":4.355e-5,"MEAN_MOTION_DDOT":0},{"OBJECT_NAME":"STARLINK-34501","OBJECT_ID":"2025-129T","EPOCH":"2026-02-19T14:15:58.489344","MEAN_MOTION":14.98345335,"ECCENTRICITY":0.000308,"INCLINATION":70.0007,"RA_OF_ASC_NODE":120.2132,"ARG_OF_PERICENTER":265.7665,"MEAN_ANOMALY":94.3142,"EPHEMERIS_TYPE":0,"CLASSIFICATION_TYPE":"U","NORAD_CAT_ID":64429,"ELEMENT_SET_NO":999,"REV_AT_EPOCH":3857,"BSTAR":0.00044924,"MEAN_MOTION_DOT":5.273e-5,"MEAN_MOTION_DDOT":0},{"OBJECT_NAME":"STARLINK-34441","OBJECT_ID":"2025-129U","EPOCH":"2026-02-19T13:51:56.779200","MEAN_MOTION":14.98336404,"ECCENTRICITY":0.0003115,"INCLINATION":70.0015,"RA_OF_ASC_NODE":120.1553,"ARG_OF_PERICENTER":256.1768,"MEAN_ANOMALY":103.9044,"EPHEMERIS_TYPE":0,"CLASSIFICATION_TYPE":"U","NORAD_CAT_ID":64430,"ELEMENT_SET_NO":999,"REV_AT_EPOCH":3857,"BSTAR":0.00039514,"MEAN_MOTION_DOT":4.626e-5,"MEAN_MOTION_DDOT":0},{"OBJECT_NAME":"STARLINK-34524","OBJECT_ID":"2025-129V","EPOCH":"2026-02-20T05:29:14.189280","MEAN_MOTION":14.983444,"ECCENTRICITY":0.00027688,"INCLINATION":70.0011,"RA_OF_ASC_NODE":118.4118,"ARG_OF_PERICENTER":264.0348,"MEAN_ANOMALY":96.0496,"EPHEMERIS_TYPE":0,"CLASSIFICATION_TYPE":"U","NORAD_CAT_ID":64431,"ELEMENT_SET_NO":999,"REV_AT_EPOCH":3861,"BSTAR":0.00010007421,"MEAN_MOTION_DOT":1.102e-5,"MEAN_MOTION_DDOT":0},{"OBJECT_NAME":"STARLINK-34506","OBJECT_ID":"2025-129W","EPOCH":"2026-02-20T05:05:11.280768","MEAN_MOTION":14.98340355,"ECCENTRICITY":0.0003407,"INCLINATION":70.0015,"RA_OF_ASC_NODE":118.3519,"ARG_OF_PERICENTER":266.9574,"MEAN_ANOMALY":93.1195,"EPHEMERIS_TYPE":0,"CLASSIFICATION_TYPE":"U","NORAD_CAT_ID":64432,"ELEMENT_SET_NO":999,"REV_AT_EPOCH":3861,"BSTAR":0.00014086046,"MEAN_MOTION_DOT":1.589e-5,"MEAN_MOTION_DDOT":0},{"OBJECT_NAME":"STARLINK-34451","OBJECT_ID":"2025-129X","EPOCH":"2026-02-20T04:48:01.550016","MEAN_MOTION":14.96327362,"ECCENTRICITY":0.00085771,"INCLINATION":70.0003,"RA_OF_ASC_NODE":118.7077,"ARG_OF_PERICENTER":27.7886,"MEAN_ANOMALY":332.3728,"EPHEMERIS_TYPE":0,"CLASSIFICATION_TYPE":"U","NORAD_CAT_ID":64433,"ELEMENT_SET_NO":999,"REV_AT_EPOCH":3860,"BSTAR":-0.085482145,"MEAN_MOTION_DOT":-0.00897096,"MEAN_MOTION_DDOT":0},{"OBJECT_NAME":"STARLINK-34472","OBJECT_ID":"2025-129Y","EPOCH":"2026-02-20T04:23:23.710848","MEAN_MOTION":14.98338338,"ECCENTRICITY":0.00032563,"INCLINATION":70.0008,"RA_OF_ASC_NODE":118.651,"ARG_OF_PERICENTER":268.5356,"MEAN_ANOMALY":91.543,"EPHEMERIS_TYPE":0,"CLASSIFICATION_TYPE":"U","NORAD_CAT_ID":64434,"ELEMENT_SET_NO":999,"REV_AT_EPOCH":3866,"BSTAR":0.0004003581,"MEAN_MOTION_DOT":4.688e-5,"MEAN_MOTION_DDOT":0},{"OBJECT_NAME":"STARLINK-34478","OBJECT_ID":"2025-129Z","EPOCH":"2026-02-20T05:35:29.020992","MEAN_MOTION":14.98336489,"ECCENTRICITY":0.00032735,"INCLINATION":70.0009,"RA_OF_ASC_NODE":118.4254,"ARG_OF_PERICENTER":267.9641,"MEAN_ANOMALY":92.1143,"EPHEMERIS_TYPE":0,"CLASSIFICATION_TYPE":"U","NORAD_CAT_ID":64435,"ELEMENT_SET_NO":999,"REV_AT_EPOCH":3861,"BSTAR":0.00023891872,"MEAN_MOTION_DOT":2.759e-5,"MEAN_MOTION_DDOT":0},{"OBJECT_NAME":"STARLINK-34396","OBJECT_ID":"2025-129AA","EPOCH":"2026-02-20T04:35:24.914976","MEAN_MOTION":14.98338582,"ECCENTRICITY":0.0003294,"INCLINATION":70.0004,"RA_OF_ASC_NODE":118.6714,"ARG_OF_PERICENTER":269.7923,"MEAN_ANOMALY":90.2859,"EPHEMERIS_TYPE":0,"CLASSIFICATION_TYPE":"U","NORAD_CAT_ID":64436,"ELEMENT_SET_NO":999,"REV_AT_EPOCH":3860,"BSTAR":0.00037026506,"MEAN_MOTION_DOT":4.329e-5,"MEAN_MOTION_DDOT":0},{"OBJECT_NAME":"STARLINK-34507","OBJECT_ID":"2025-129AB","EPOCH":"2026-02-20T05:17:26.286432","MEAN_MOTION":14.98327039,"ECCENTRICITY":0.00032581,"INCLINATION":70,"RA_OF_ASC_NODE":118.3798,"ARG_OF_PERICENTER":268.3751,"MEAN_ANOMALY":91.7035,"EPHEMERIS_TYPE":0,"CLASSIFICATION_TYPE":"U","NORAD_CAT_ID":64437,"ELEMENT_SET_NO":999,"REV_AT_EPOCH":3867,"BSTAR":-0.00032632058,"MEAN_MOTION_DOT":-3.984e-5,"MEAN_MOTION_DDOT":0},{"OBJECT_NAME":"STARLINK-34465","OBJECT_ID":"2025-130A","EPOCH":"2026-02-20T07:35:46.957344","MEAN_MOTION":15.30193878,"ECCENTRICITY":0.00013905,"INCLINATION":53.1607,"RA_OF_ASC_NODE":169.2022,"ARG_OF_PERICENTER":92.3427,"MEAN_ANOMALY":267.7733,"EPHEMERIS_TYPE":0,"CLASSIFICATION_TYPE":"U","NORAD_CAT_ID":64438,"ELEMENT_SET_NO":999,"REV_AT_EPOCH":3804,"BSTAR":0.000795627,"MEAN_MOTION_DOT":0.00023274,"MEAN_MOTION_DDOT":0},{"OBJECT_NAME":"STARLINK-34456","OBJECT_ID":"2025-130B","EPOCH":"2026-02-19T17:14:05.024544","MEAN_MOTION":15.30213342,"ECCENTRICITY":0.00012429,"INCLINATION":53.1606,"RA_OF_ASC_NODE":171.8686,"ARG_OF_PERICENTER":64.4071,"MEAN_ANOMALY":295.7058,"EPHEMERIS_TYPE":0,"CLASSIFICATION_TYPE":"U","NORAD_CAT_ID":64439,"ELEMENT_SET_NO":999,"REV_AT_EPOCH":3795,"BSTAR":0.0011515488,"MEAN_MOTION_DOT":0.00033916,"MEAN_MOTION_DDOT":0},{"OBJECT_NAME":"STARLINK-34410","OBJECT_ID":"2025-130C","EPOCH":"2026-02-19T20:08:30.729120","MEAN_MOTION":15.30186222,"ECCENTRICITY":0.0001247,"INCLINATION":53.1596,"RA_OF_ASC_NODE":171.2004,"ARG_OF_PERICENTER":93.5487,"MEAN_ANOMALY":266.5657,"EPHEMERIS_TYPE":0,"CLASSIFICATION_TYPE":"U","NORAD_CAT_ID":64440,"ELEMENT_SET_NO":999,"REV_AT_EPOCH":3797,"BSTAR":0.00047413,"MEAN_MOTION_DOT":0.00013703,"MEAN_MOTION_DDOT":0}]
